SEEDS II (CO-66)        
1 32791U 08021J   26068.92109284  .00023758  00000+0  84213-3 0  9995
2 32791  97.7519  62.3611 0001448 359.2618   0.8619 15.29097235972108
STARLINK-35533          
1 66429U 25259H   26067.97536725  .00042910  00000+0  15615-2 0  9990
2 66429  43.0059 278.2403 0003009 262.8657  97.1852 15.27541105 19388
